NORAD_CAT_ID,OBJECT_NAME,OBJECT_TYPE,EPOCH,MEAN_MOTION,ECCENTRICITY,INCLINATION,RA_OF_ASC_NODE,ARG_OF_PERICENTER,MEAN_ANOMALY,BSTAR,MEAN_MOTION_DOT,MEAN_MOTION_DDOT,TLE_LINE0,TLE_LINE1,TLE_LINE2,SEMIMAJOR_AXIS,PERIOD,APOGEE,PERIGEE,DECAYED
49142.0,STARLINK-3042,PAYLOAD,2022-07-08 13:31:04,14.96719852,0.0002964,69.9999,32.8153,262.8315,97.2506,0.00014754,1.598e-05,0.0,0 STARLINK-3042,1 49142U 21082N   22189.56324402  .00001598  00000-0  14754-3 0  9998,2 49142  69.9999  32.8153 0002964 262.8315  97.2506 14.96719852 46240,6955.177,96.21,579.1030000000002,574.98,0.0
49142.0,STARLINK-3042,PAYLOAD,2022-07-08 19:56:01,14.96723974,0.0002959,70.0,32.1431,263.2002,96.8819,0.00016313,1.776e-05,0.0,0 STARLINK-3042,1 49142U 21082N   22189.83056832  .00001776  00000-0  16313-3 0  9998,2 49142  70.0000  32.1431 0002959 263.2002  96.8819 14.96723974 46286,6955.1640000000025,96.21,579.087,574.971,0.0
49142.0,STARLINK-3042,PAYLOAD,2022-07-09 13:34:37,14.96730482,0.0002959,69.9999,30.2938,263.1173,96.9649,0.00015365,1.668e-05,0.0,0 STARLINK-3042,1 49142U 21082N   22190.56571197  .00001668  00000-0  15365-3 0  9992,2 49142  69.9999  30.2938 0002959 263.1173  96.9649 14.96730482 46395,6955.144,96.21,579.067,574.951,0.0
49142.0,STARLINK-3042,PAYLOAD,2022-07-09 16:47:06,14.96729101,0.0002966,70.0,29.9577,263.2282,96.8539,0.00013528,1.458e-05,0.0,0 STARLINK-3042,1 49142U 21082N   22190.69937606  .00001458  00000-0  13528-3 0  9993,2 49142  70.0000  29.9577 0002966 263.2282  96.8539 14.96729101 46411,6955.148,96.21,579.076,574.95,0.0
49142.0,STARLINK-3042,PAYLOAD,2022-07-10 00:48:19,14.96708252,0.0003105,69.9996,29.117,263.8124,96.2681,-0.00011181,-1.371e-05,0.0,0 STARLINK-3042,1 49142U 21082N   22191.03355486 -.00001371  00000-0 -11181-3 0  9991,2 49142  69.9996  29.1170 0003105 263.8124  96.2681 14.96708252 46461,6955.2130000000025,96.211,579.237,574.918,0.0
49142.0,STARLINK-3042,PAYLOAD,2022-07-10 20:03:10,14.96708518,0.0003136,69.9995,27.1,264.1367,95.9434,-0.00018417,-2.199e-05,0.0,0 STARLINK-3042,1 49142U 21082N   22191.83554353 -.00002199  00000-0 -18417-3 0  9991,2 49142  69.9995  27.1000 0003136 264.1367  95.9434 14.96708518 46587,6955.212,96.211,579.258,574.896,0.0
49142.0,STARLINK-3042,PAYLOAD,2022-07-11 05:40:36,14.96712541,0.000312,69.9994,26.0908,263.7196,96.3607,-0.00017283,-2.069e-05,0.0,0 STARLINK-3042,1 49142U 21082N   22192.23653366 -.00002069  00000-0 -17283-3 0  9996,2 49142  69.9994  26.0908 0003120 263.7196  96.3607 14.96712541 46644,6955.199000000001,96.211,579.234,574.894,0.0
49142.0,STARLINK-3042,PAYLOAD,2022-07-11 12:05:33,14.96709763,0.0003108,69.9993,25.4187,262.9601,97.1204,-0.00019341,-2.304e-05,0.0,0 STARLINK-3042,1 49142U 21082N   22192.50386476 -.00002304  00000-0 -19341-3 0  9990,2 49142  69.9993  25.4187 0003108 262.9601  97.1204 14.96709763 46681,6955.208000000001,96.211,579.235,574.911,0.0
49142.0,STARLINK-3042,PAYLOAD,2022-07-11 20:06:45,14.96703236,0.0002845,70.0005,24.5784,263.4438,96.6397,4.216100000000001e-05,3.91e-06,0.0,0 STARLINK-3042,1 49142U 21082N   22192.83802568  .00000391  00000-0  42161-4 0  9990,2 49142  70.0005  24.5784 0002845 263.4438  96.6397 14.96703236 46734,6955.228,96.211,579.072,575.114,0.0
49142.0,STARLINK-3042,PAYLOAD,2022-07-12 05:44:10,14.96710657,0.0002882,70.0003,23.5698,264.2735,95.8095,0.00024748,2.742e-05,0.0,0 STARLINK-3042,1 49142U 21082N   22193.23901056  .00002742  00000-0  24748-3 0  9999,2 49142  70.0003  23.5698 0002882 264.2735  95.8095 14.96710657 46792,6955.205,96.211,579.075,575.066,0.0
49142.0,STARLINK-3042,PAYLOAD,2022-07-12 20:10:18,14.96718517,0.0002918,70.0002,22.0572,261.3923,98.6905,0.00027153,3.018e-05,0.0,0 STARLINK-3042,1 49142U 21082N   22193.84049482  .00003018  00000-0  27153-3 0  9992,2 49142  70.0002  22.0572 0002918 261.3923  98.6905 14.96718517 46887,6955.181,96.21,579.075,575.016,0.0
49142.0,STARLINK-3042,PAYLOAD,2022-07-12 23:22:47,14.96721236,0.0002912,70.0002,21.721,260.9641,99.1188,0.00029885,3.331e-05,0.0,0 STARLINK-3042,1 49142U 21082N   22193.97415699  .00003331  00000-0  29885-3 0  9995,2 49142  70.0002  21.7210 0002912 260.9641  99.1188 14.96721236 46902,6955.172,96.21,579.063,575.012,0.0
49142.0,STARLINK-3042,PAYLOAD,2022-07-13 20:13:52,14.96726906,0.0003123999999999,70.0002,19.5352,261.591,98.4894,0.00020913,2.304e-05,0.0,0 STARLINK-3042,1 49142U 21082N   22194.84296615  .00002304  00000-0  20913-3 0  9999,2 49142  70.0002  19.5352 0003124 261.5910  98.4894 14.96726906 47036,6955.155,96.21,579.193,574.847,0.0
49142.0,STARLINK-3042,PAYLOAD,2022-07-14 05:51:18,14.96724936,0.0003159,69.9998,18.527,259.5947,100.4855,3.8609e-05,3.5000000000000016e-06,0.0,0 STARLINK-3042,1 49142U 21082N   22195.24395973  .00000350  00000-0  38609-4 0  9992,2 49142  69.9998  18.5270 0003159 259.5947 100.4855 14.96724936 47098,6955.161,96.21,579.2230000000002,574.8290000000002,0.0
49142.0,STARLINK-3042,PAYLOAD,2022-07-14 12:16:15,14.96727823,0.0002998,69.9997,17.8548,260.1116,99.9704,-3.4333e-06,-1.31e-06,0.0,0 STARLINK-3042,1 49142U 21082N   22195.51128523 -.00000131  00000-0 -34333-5 0  9997,2 49142  69.9997  17.8548 0002998 260.1116  99.9704 14.96727823 47131,6955.151999999999,96.21,579.102,574.932,0.0
49142.0,STARLINK-3042,PAYLOAD,2022-07-14 18:41:11,14.96740183,0.0003123,69.9998,17.1829,263.4792,96.6011,-0.00018395,-2.198e-05,0.0,0 STARLINK-3042,1 49142U 21082N   22195.77860798 -.00002198  00000-0 -18395-3 0  9995,2 49142  69.9998  17.1829 0003123 263.4792  96.6011 14.96740183 47177,6955.114000000001,96.209,579.151,574.807,0.0
49142.0,STARLINK-3042,PAYLOAD,2022-07-14 20:17:26,14.96729304,0.0003143,69.9998,17.0148,261.9603,98.1199,-1.043e-05,-2.11e-06,0.0,0 STARLINK-3042,1 49142U 21082N   22195.84544120 -.00000211  00000-0 -10430-4 0  9998,2 49142  69.9998  17.0148 0003143 261.9603  98.1199 14.96729304 47183,6955.147,96.21,579.198,574.826,0.0
49142.0,STARLINK-3042,PAYLOAD,2022-07-15 05:54:52,14.96717629,0.0002883,70.0008,16.0061,256.3215,103.7622,-9.607e-05,-1.191e-05,0.0,0 STARLINK-3042,1 49142U 21082N   22196.24644153 -.00001191  00000-0 -96070-4 0  9992,2 49142  70.0008  16.0061 0002883 256.3215 103.7622 14.96717629 47246,6955.183000000001,96.211,579.054,575.043,0.0
49142.0,STARLINK-3042,PAYLOAD,2022-07-15 12:19:49,14.96715459,0.0003011,70.0001,15.3337,261.1276,98.9541,-6.6603e-07,-9.9e-07,0.0,0 STARLINK-3042,1 49142U 21082N   22196.51376531 -.00000099  00000-0 -66603-6 0  9991,2 49142  70.0001  15.3337 0003011 261.1276  98.9541 14.96715459 47280,6955.19,96.211,579.149,574.961,0.0
49142.0,STARLINK-3042,PAYLOAD,2022-07-15 20:21:00,14.96716861,0.0003126,70.0002,14.4932,260.2292,99.8513,-5.704e-06,-1.57e-06,0.0,0 STARLINK-3042,1 49142U 21082N   22196.84792459 -.00000157  00000-0 -57040-5 0  9997,2 49142  70.0002  14.4932 0003126 260.2292  99.8513 14.96716861 47330,6955.186,96.211,579.225,574.877,0.0
49142.0,STARLINK-3042,PAYLOAD,2022-07-16 12:23:22,14.96722702,0.0003139,70.0002,12.8124,260.1202,99.9602,6.6913e-05,6.74e-06,0.0,0 STARLINK-3042,1 49142U 21082N   22197.51623837  .00000674  00000-0  66913-4 0  9995,2 49142  70.0002  12.8124 0003139 260.1202  99.9602 14.96722702 47431,6955.168000000002,96.21,579.216,574.85,0.0
49142.0,STARLINK-3042,PAYLOAD,2022-07-16 20:24:34,14.96726406,0.0003191999999999,70.0001,11.9719,260.685,99.3948,0.00010077,1.062e-05,0.0,0 STARLINK-3042,1 49142U 21082N   22197.85039437  .00001062  00000-0  10077-3 0  9990,2 49142  70.0001  11.9719 0003192 260.6850  99.3948 14.96726406 47480,6955.156,96.21,579.241,574.8009999999998,0.0
49142.0,STARLINK-3042,PAYLOAD,2022-07-17 12:26:57,14.96719014,0.0003093,70.0006,10.2913,260.1257,99.9552,0.00013389,1.441e-05,0.0,0 STARLINK-3042,1 49142U 21082N   22198.51871711  .00001441  00000-0  13389-3 0  9993,2 49142  70.0006  10.2913 0003093 260.1257  99.9552 14.96719014 47584,6955.179,96.21,579.195,574.893,0.0
49142.0,STARLINK-3042,PAYLOAD,2022-07-17 17:15:40,14.96716946,0.0003136,70.0006,9.787,259.9815,100.099,0.00010295,1.087e-05,0.0,0 STARLINK-3042,1 49142U 21082N   22198.71921444  .00001087  00000-0  10295-3 0  9993,2 49142  70.0006   9.7870 0003136 259.9815 100.0990 14.96716946 47618,6955.186,96.211,579.232,574.869,0.0
49142.0,STARLINK-3042,PAYLOAD,2022-07-18 10:54:16,14.96725094,0.0003177,70.0007,7.9382,258.3641,101.7161,0.0001209,1.293e-05,0.0,0 STARLINK-3042,1 49142U 21082N   22199.45435899  .00001293  00000-0  12090-3 0  9993,2 49142  70.0007   7.9382 0003177 258.3641 101.7161 14.96725094 47726,6955.16,96.21,579.235,574.816,0.0
49142.0,STARLINK-3042,PAYLOAD,2022-07-18 20:31:42,14.967245000000002,0.0003724,70.0005,6.928999999999999,264.3182,95.7552,1.3415e-05,6.2e-07,0.0,0 STARLINK-3042,1 49142U 21082N   22199.85535093  .00000062  00000-0  13415-4 0  9990,2 49142  70.0005   6.9290 0003724 264.3182  95.7552 14.96724500 47789,6955.1619999999975,96.21,579.617,574.437,0.0
49142.0,STARLINK-3042,PAYLOAD,2022-07-19 04:32:54,14.96717527,0.0003203,70.0009,6.0892,258.8788,101.201,-0.0001029,-1.269e-05,0.0,0 STARLINK-3042,1 49142U 21082N   22200.18951714 -.00001269  00000-0 -10290-3 0  9990,2 49142  70.0009   6.0892 0003203 258.8788 101.2010 14.96717527 47833,6955.184,96.211,579.2769999999998,574.821,0.0
49142.0,STARLINK-3042,PAYLOAD,2022-07-19 12:34:05,14.96712641,0.0003339,70.0006,5.2484,259.296,100.7822,2.6864e-05,2.16e-06,0.0,0 STARLINK-3042,1 49142U 21082N   22200.52367728  .00000216  00000-0  26864-4 0  9998,2 49142  70.0006   5.2484 0003339 259.2960 100.7822 14.96712641 47887,6955.199000000001,96.211,579.386,574.742,0.0
49142.0,STARLINK-3042,PAYLOAD,2022-07-19 20:35:16,14.96717946,0.0003247,70.0006,4.4079,259.7903,100.2889,9.62e-05,1.01e-05,0.0,0 STARLINK-3042,1 49142U 21082N   22200.85783260  .00001010  00000-0  96200-4 0  9991,2 49142  70.0006   4.4079 0003247 259.7903 100.2889 14.96717946 47935,6955.183000000001,96.211,579.306,574.789,0.0
